ATLAS CENTAUR R/B       
1 06155U 72065B   26011.79902353  .00001153  00000+0  16066-3 0  9996
2 06155  35.0017 279.1085 0034596 251.9972 107.6956 14.77503573832840
SL-8 R/B                
1 08459U 75112B   26011.74203121  .00000240  00000+0  87639-4 0  9994
2 08459  74.0614 123.6734 0016495 231.9972 127.9694 14.38168553623681
SL-3 R/B                
1 10114U 77057B   26011.96973425  .00013755  00000+0  30537-3 0  9999
2 10114  97.5700 181.4962 0008347 122.6031 237.6024 15.43798105659574
SEASAT 1                
1 10967U 78064A   26011.91221350  .00000385  00000+0  14632-3 0  9995
2 10967 108.0157   6.3430 0001169 273.1463  86.9549 14.46101049498301
SL-14 R/B               
1 11267U 79011B   26011.83769644  .00000730  00000+0  69731-4 0  9991
2 11267  82.5253 150.4994 0014738 245.3349 114.6337 14.91819176520301
SL-8 R/B                
1 11574U 79089B   26011.93942215  .00000393  00000+0  12686-3 0  9996
2 11574  74.0672 196.0845 0015345  18.9541 341.2183 14.42305578427920
SL-14 R/B               
1 11672U 80005B   26011.94765773  .00000758  00000+0  74353-4 0  9993
2 11672  82.5145   1.0452 0015673 358.9357   1.1825 14.90837984468039
SL-8 R/B                
1 12139U 81003B   26011.93697992  .00029005  00000+0  76633-3 0  9995
2 12139  82.9384 342.4108 0272612  16.6747 344.3225 15.08366562306111
SL-3 R/B                
1 12465U 81046B   26011.97386279  .00012179  00000+0  29905-3 0  9995
2 12465  81.2327 357.7466 0018382 211.8734 148.1397 15.40366197429694
SL-3 R/B                
1 12904U 81103B   26011.99900608  .00005986  00000+0  27084-3 0  9991
2 12904  81.1595 279.9083 0014148 112.7795 247.4933 15.20660153964612
SL-3 R/B                
1 13068U 82013B   26011.90066737  .00003958  00000+0  17413-3 0  9993
2 13068  81.1729 227.2984 0023140  13.5498 346.6349 15.21387043395716
SL-3 R/B                
1 13154U 82039B   26011.99653424  .00003081  00000+0  18763-3 0  9997
2 13154  81.1681 281.2808 0029801 150.1377 210.1557 15.09737440373086
