CCSDS_OMM_VERS = 2.0
CREATION_DATE  = 
ORIGINATOR     = 

OBJECT_NAME    = ATLAS CENTAUR R/B
OBJECT_ID      = 1972-065B
CENTER_NAME    = EARTH
REF_FRAME      = TEME
TIME_SYSTEM    = UTC
MEAN_ELEMENT_THEORY = SGP/SGP4

EPOCH          = 2026-01-11T19:10:35.632992
MEAN_MOTION    = 14.77503573
ECCENTRICITY   = .00345967
INCLINATION    = 35.0017
RA_OF_ASC_NODE = 279.1085
ARG_OF_PERICENTER = 251.9972
MEAN_ANOMALY   = 107.6956

EPHEMERIS_TYPE = 0
CLASSIFICATION_TYPE = U
NORAD_CAT_ID   = 6155
ELEMENT_SET_NO = 999
REV_AT_EPOCH   = 83284
BSTAR          = .16065747E-3
MEAN_MOTION_DOT = .1153E-4
MEAN_MOTION_DDOT = 0

CCSDS_OMM_VERS = 2.0
CREATION_DATE  = 
ORIGINATOR     = 

OBJECT_NAME    = SL-8 R/B
OBJECT_ID      = 1975-112B
CENTER_NAME    = EARTH
REF_FRAME      = TEME
TIME_SYSTEM    = UTC
MEAN_ELEMENT_THEORY = SGP/SGP4

EPOCH          = 2026-01-11T17:48:31.496544
MEAN_MOTION    = 14.38168553
ECCENTRICITY   = .00164958
INCLINATION    = 74.0614
RA_OF_ASC_NODE = 123.6734
ARG_OF_PERICENTER = 231.9972
MEAN_ANOMALY   = 127.9694

EPHEMERIS_TYPE = 0
CLASSIFICATION_TYPE = U
NORAD_CAT_ID   = 8459
ELEMENT_SET_NO = 999
REV_AT_EPOCH   = 62368
BSTAR          = .87638859E-4
MEAN_MOTION_DOT = .24E-5
MEAN_MOTION_DDOT = 0

CCSDS_OMM_VERS = 2.0
CREATION_DATE  = 
ORIGINATOR     = 

OBJECT_NAME    = SL-3 R/B
OBJECT_ID      = 1977-057B
CENTER_NAME    = EARTH
REF_FRAME      = TEME
TIME_SYSTEM    = UTC
MEAN_ELEMENT_THEORY = SGP/SGP4

EPOCH          = 2026-01-11T23:16:25.039200
MEAN_MOTION    = 15.43798105
ECCENTRICITY   = .00083474
INCLINATION    = 97.5700
RA_OF_ASC_NODE = 181.4962
ARG_OF_PERICENTER = 122.6031
MEAN_ANOMALY   = 237.6024

EPHEMERIS_TYPE = 0
CLASSIFICATION_TYPE = U
NORAD_CAT_ID   = 10114
ELEMENT_SET_NO = 999
REV_AT_EPOCH   = 65957
BSTAR          = .30537126E-3
MEAN_MOTION_DOT = .13755E-3
MEAN_MOTION_DDOT = 0

CCSDS_OMM_VERS = 2.0
CREATION_DATE  = 
ORIGINATOR     = 

OBJECT_NAME    = SEASAT 1
OBJECT_ID      = 1978-064A
CENTER_NAME    = EARTH
REF_FRAME      = TEME
TIME_SYSTEM    = UTC
MEAN_ELEMENT_THEORY = SGP/SGP4

EPOCH          = 2026-01-11T21:53:35.246400
MEAN_MOTION    = 14.46101049
ECCENTRICITY   = .00011695
INCLINATION    = 108.0157
RA_OF_ASC_NODE = 6.3430
ARG_OF_PERICENTER = 273.1463
MEAN_ANOMALY   = 86.9549

EPHEMERIS_TYPE = 0
CLASSIFICATION_TYPE = U
NORAD_CAT_ID   = 10967
ELEMENT_SET_NO = 999
REV_AT_EPOCH   = 49830
BSTAR          = .14632164E-3
MEAN_MOTION_DOT = .385E-5
MEAN_MOTION_DDOT = 0

CCSDS_OMM_VERS = 2.0
CREATION_DATE  = 
ORIGINATOR     = 

OBJECT_NAME    = SL-14 R/B
OBJECT_ID      = 1979-011B
CENTER_NAME    = EARTH
REF_FRAME      = TEME
TIME_SYSTEM    = UTC
MEAN_ELEMENT_THEORY = SGP/SGP4

EPOCH          = 2026-01-11T20:06:16.972416
MEAN_MOTION    = 14.91819176
ECCENTRICITY   = .00147387
INCLINATION    = 82.5253
RA_OF_ASC_NODE = 150.4994
ARG_OF_PERICENTER = 245.3349
MEAN_ANOMALY   = 114.6337

EPHEMERIS_TYPE = 0
CLASSIFICATION_TYPE = U
NORAD_CAT_ID   = 11267
ELEMENT_SET_NO = 999
REV_AT_EPOCH   = 52030
BSTAR          = .69731079E-4
MEAN_MOTION_DOT = .73E-5
MEAN_MOTION_DDOT = 0

CCSDS_OMM_VERS = 2.0
CREATION_DATE  = 
ORIGINATOR     = 

OBJECT_NAME    = SL-8 R/B
OBJECT_ID      = 1979-089B
CENTER_NAME    = EARTH
REF_FRAME      = TEME
TIME_SYSTEM    = UTC
MEAN_ELEMENT_THEORY = SGP/SGP4

EPOCH          = 2026-01-11T22:32:46.073760
MEAN_MOTION    = 14.42305578
ECCENTRICITY   = .00153456
INCLINATION    = 74.0672
RA_OF_ASC_NODE = 196.0845
ARG_OF_PERICENTER = 18.9541
MEAN_ANOMALY   = 341.2183

EPHEMERIS_TYPE = 0
CLASSIFICATION_TYPE = U
NORAD_CAT_ID   = 11574
ELEMENT_SET_NO = 999
REV_AT_EPOCH   = 42792
BSTAR          = .126857E-3
MEAN_MOTION_DOT = .393E-5
MEAN_MOTION_DDOT = 0

CCSDS_OMM_VERS = 2.0
CREATION_DATE  = 
ORIGINATOR     = 

OBJECT_NAME    = SL-14 R/B
OBJECT_ID      = 1980-005B
CENTER_NAME    = EARTH
REF_FRAME      = TEME
TIME_SYSTEM    = UTC
MEAN_ELEMENT_THEORY = SGP/SGP4

EPOCH          = 2026-01-11T22:44:37.627872
MEAN_MOTION    = 14.90837984
ECCENTRICITY   = .00156738
INCLINATION    = 82.5145
RA_OF_ASC_NODE = 1.0452
ARG_OF_PERICENTER = 358.9357
MEAN_ANOMALY   = 1.1825

EPHEMERIS_TYPE = 0
CLASSIFICATION_TYPE = U
NORAD_CAT_ID   = 11672
ELEMENT_SET_NO = 999
REV_AT_EPOCH   = 46803
BSTAR          = .74353374E-4
MEAN_MOTION_DOT = .758E-5
MEAN_MOTION_DDOT = 0

CCSDS_OMM_VERS = 2.0
CREATION_DATE  = 
ORIGINATOR     = 

OBJECT_NAME    = SL-8 R/B
OBJECT_ID      = 1981-003B
CENTER_NAME    = EARTH
REF_FRAME      = TEME
TIME_SYSTEM    = UTC
MEAN_ELEMENT_THEORY = SGP/SGP4

EPOCH          = 2026-01-11T22:29:15.065088
MEAN_MOTION    = 15.08366562
ECCENTRICITY   = .02726121
INCLINATION    = 82.9384
RA_OF_ASC_NODE = 342.4108
ARG_OF_PERICENTER = 16.6747
MEAN_ANOMALY   = 344.3225

EPHEMERIS_TYPE = 0
CLASSIFICATION_TYPE = U
NORAD_CAT_ID   = 12139
ELEMENT_SET_NO = 999
REV_AT_EPOCH   = 30611
BSTAR          = .76633186E-3
MEAN_MOTION_DOT = .29005E-3
MEAN_MOTION_DDOT = 0

CCSDS_OMM_VERS = 2.0
CREATION_DATE  = 
ORIGINATOR     = 

OBJECT_NAME    = SL-3 R/B
OBJECT_ID      = 1981-046B
CENTER_NAME    = EARTH
REF_FRAME      = TEME
TIME_SYSTEM    = UTC
MEAN_ELEMENT_THEORY = SGP/SGP4

EPOCH          = 2026-01-11T23:22:21.745056
MEAN_MOTION    = 15.40366197
ECCENTRICITY   = .00183823
INCLINATION    = 81.2327
RA_OF_ASC_NODE = 357.7466
ARG_OF_PERICENTER = 211.8734
MEAN_ANOMALY   = 148.1397

EPHEMERIS_TYPE = 0
CLASSIFICATION_TYPE = U
NORAD_CAT_ID   = 12465
ELEMENT_SET_NO = 999
REV_AT_EPOCH   = 42969
BSTAR          = .29904762E-3
MEAN_MOTION_DOT = .12179E-3
MEAN_MOTION_DDOT = 0

CCSDS_OMM_VERS = 2.0
CREATION_DATE  = 
ORIGINATOR     = 

OBJECT_NAME    = SL-3 R/B
OBJECT_ID      = 1981-103B
CENTER_NAME    = EARTH
REF_FRAME      = TEME
TIME_SYSTEM    = UTC
MEAN_ELEMENT_THEORY = SGP/SGP4

EPOCH          = 2026-01-11T23:58:34.125312
MEAN_MOTION    = 15.20660153
ECCENTRICITY   = .00141487
INCLINATION    = 81.1595
RA_OF_ASC_NODE = 279.9083
ARG_OF_PERICENTER = 112.7795
MEAN_ANOMALY   = 247.4933

EPHEMERIS_TYPE = 0
CLASSIFICATION_TYPE = U
NORAD_CAT_ID   = 12904
ELEMENT_SET_NO = 999
REV_AT_EPOCH   = 96461
BSTAR          = .27084347E-3
MEAN_MOTION_DOT = .5986E-4
MEAN_MOTION_DDOT = 0

CCSDS_OMM_VERS = 2.0
CREATION_DATE  = 
ORIGINATOR     = 

OBJECT_NAME    = SL-3 R/B
OBJECT_ID      = 1982-013B
CENTER_NAME    = EARTH
REF_FRAME      = TEME
TIME_SYSTEM    = UTC
MEAN_ELEMENT_THEORY = SGP/SGP4

EPOCH          = 2026-01-11T21:36:57.660768
MEAN_MOTION    = 15.21387043
ECCENTRICITY   = .00231403
INCLINATION    = 81.1729
RA_OF_ASC_NODE = 227.2984
ARG_OF_PERICENTER = 13.5498
MEAN_ANOMALY   = 346.6349

EPHEMERIS_TYPE = 0
CLASSIFICATION_TYPE = U
NORAD_CAT_ID   = 13068
ELEMENT_SET_NO = 999
REV_AT_EPOCH   = 39571
BSTAR          = .17413059E-3
MEAN_MOTION_DOT = .3958E-4
MEAN_MOTION_DDOT = 0

CCSDS_OMM_VERS = 2.0
CREATION_DATE  = 
ORIGINATOR     = 

OBJECT_NAME    = SL-3 R/B
OBJECT_ID      = 1982-039B
CENTER_NAME    = EARTH
REF_FRAME      = TEME
TIME_SYSTEM    = UTC
MEAN_ELEMENT_THEORY = SGP/SGP4

EPOCH          = 2026-01-11T23:55:00.558336
MEAN_MOTION    = 15.09737440
ECCENTRICITY   = .00298013
INCLINATION    = 81.1681
RA_OF_ASC_NODE = 281.2808
ARG_OF_PERICENTER = 150.1377
MEAN_ANOMALY   = 210.1557

EPHEMERIS_TYPE = 0
CLASSIFICATION_TYPE = U
NORAD_CAT_ID   = 13154
ELEMENT_SET_NO = 999
REV_AT_EPOCH   = 37308
BSTAR          = .18762503E-3
MEAN_MOTION_DOT = .3081E-4
MEAN_MOTION_DDOT = 0

